{
  "type": "FeatureCollection",
  "features": [
    {
      "type": "Feature",
      "properties": {
        "norad_id": 66568,
        "name": "STARLINK-35803",
        "group": "last-30-days",
        "lat": 3.703299652965559,
        "lon": -13.66756672251326,
        "alt_km": 354.74327489571715,
        "timestamp": "2025-12-04T09:47:36.303123+00:00",
        "meta_object_name": "STARLINK-35803",
        "meta_object_id": "2025-268M",
        "meta_epoch": "2025-12-03T22:00:03.000096",
        "meta_mean_motion": 15.73321105,
        "meta_eccentricity": 0.00012605,
        "meta_inclination": 42.999,
        "meta_ra_of_asc_node": 173.2851,
        "meta_arg_of_pericenter": 269.9027,
        "meta_mean_anomaly": 359.9683,
        "meta_ephemeris_type": 0,
        "meta_classification_type": "U",
        "meta_norad_cat_id": 66568,
        "meta_element_set_no": 999,
        "meta_rev_at_epoch": 325,
        "meta_bstar": -0.014965302,
        "meta_mean_motion_dot": -0.01859968,
        "meta_mean_motion_ddot": 0,
        "tle_line1": "1 66568U 25268M   25337.91670139 -.01859968  00000+0 -14965-1 0  9993",
        "tle_line2": "2 66568  42.9990 173.2851 0001260 269.9027 359.9683 15.73321105  3258"
      },
      "geometry": {
        "type": "Point",
        "coordinates": [
          -13.66756672251326,
          3.703299652965559
        ]
      }
    },
    {
      "type": "Feature",
      "properties": {
        "norad_id": 66569,
        "name": "STARLINK-35835",
        "group": "last-30-days",
        "lat": 2.40008219021971,
        "lon": -12.267189369721208,
        "alt_km": 354.7300407268831,
        "timestamp": "2025-12-04T09:47:36.303135+00:00",
        "meta_object_name": "STARLINK-35835",
        "meta_object_id": "2025-268N",
        "meta_epoch": "2025-12-03T22:00:03.000096",
        "meta_mean_motion": 15.73317564,
        "meta_eccentricity": 0.00014687,
        "meta_inclination": 42.999,
        "meta_ra_of_asc_node": 173.2805,
        "meta_arg_of_pericenter": 263.6593,
        "meta_mean_anomaly": 8.1318,
        "meta_ephemeris_type": 0,
        "meta_classification_type": "U",
        "meta_norad_cat_id": 66569,
        "meta_element_set_no": 999,
        "meta_rev_at_epoch": 325,
        "meta_bstar": -0.014937744,
        "meta_mean_motion_dot": -0.01856923,
        "meta_mean_motion_ddot": 0,
        "tle_line1": "1 66569U 25268N   25337.91670139 -.01856923  00000+0 -14938-1 0  9992",
        "tle_line2": "2 66569  42.9990 173.2805 0001468 263.6593   8.1318 15.73317564  3259"
      },
      "geometry": {
        "type": "Point",
        "coordinates": [
          -12.267189369721208,
          2.40008219021971
        ]
      }
    },
    {
      "type": "Feature",
      "properties": {
        "norad_id": 66570,
        "name": "STARLINK-35834",
        "group": "last-30-days",
        "lat": 1.0953170227574884,
        "lon": -10.869563475230512,
        "alt_km": 355.03754956330704,
        "timestamp": "2025-12-04T09:47:36.303145+00:00",
        "meta_object_name": "STARLINK-35834",
        "meta_object_id": "2025-268P",
        "meta_epoch": "2025-12-03T22:00:03.000096",
        "meta_mean_motion": 15.73304529,
        "meta_eccentricity": 0.00016556,
        "meta_inclination": 42.9991,
        "meta_ra_of_asc_node": 173.2757,
        "meta_arg_of_pericenter": 270.7408,
        "meta_mean_anomaly": 2.971,
        "meta_ephemeris_type": 0,
        "meta_classification_type": "U",
        "meta_norad_cat_id": 66570,
        "meta_element_set_no": 999,
        "meta_rev_at_epoch": 325,
        "meta_bstar": -0.014782926,
        "meta_mean_motion_dot": -0.01839438,
        "meta_mean_motion_ddot": 0,
        "tle_line1": "1 66570U 25268P   25337.91670139 -.01839438  00000+0 -14783-1 0  9994",
        "tle_line2": "2 66570  42.9991 173.2757 0001655 270.7408   2.9710 15.73304529  3255"
      },
      "geometry": {
        "type": "Point",
        "coordinates": [
          -10.869563475230512,
          1.0953170227574884
        ]
      }
    },
    {
      "type": "Feature",
      "properties": {
        "norad_id": 66571,
        "name": "STARLINK-35836",
        "group": "last-30-days",
        "lat": -0.21332763983340908,
        "lon": -9.469532179515795,
        "alt_km": 355.23942241908844,
        "timestamp": "2025-12-04T09:47:36.303163+00:00",
        "meta_object_name": "STARLINK-35836",
        "meta_object_id": "2025-268Q",
        "meta_epoch": "2025-12-03T22:00:03.000096",
        "meta_mean_motion": 15.73310468,
        "meta_eccentricity": 0.00014762,
        "meta_inclination": 42.9991,
        "meta_ra_of_asc_node": 173.2711,
        "meta_arg_of_pericenter": 273.9342,
        "meta_mean_anomaly": 1.6894,
        "meta_ephemeris_type": 0,
        "meta_classification_type": "U",
        "meta_norad_cat_id": 66571,
        "meta_element_set_no": 999,
        "meta_rev_at_epoch": 325,
        "meta_bstar": -0.014823399,
        "meta_mean_motion_dot": -0.01844078,
        "meta_mean_motion_ddot": 0,
        "tle_line1": "1 66571U 25268Q   25337.91670139 -.01844078  00000+0 -14823-1 0  9996",
        "tle_line2": "2 66571  42.9991 173.2711 0001476 273.9342   1.6894 15.73310468  3257"
      },
      "geometry": {
        "type": "Point",
        "coordinates": [
          -9.469532179515795,
          -0.21332763983340908
        ]
      }
    },
    {
      "type": "Feature",
      "properties": {
        "norad_id": 66572,
        "name": "STARLINK-35870",
        "group": "last-30-days",
        "lat": -1.5188430138175295,
        "lon": -8.071586323653506,
        "alt_km": 355.14915391507566,
        "timestamp": "2025-12-04T09:47:36.303175+00:00",
        "meta_object_name": "STARLINK-35870",
        "meta_object_id": "2025-268R",
        "meta_epoch": "2025-12-03T22:00:03.000096",
        "meta_mean_motion": 15.73314622,
        "meta_eccentricity": 0.00016702,
        "meta_inclination": 42.9991,
        "meta_ra_of_asc_node": 173.2674,
        "meta_arg_of_pericenter": 266.3348,
        "meta_mean_anomaly": 11.2013,
        "meta_ephemeris_type": 0,
        "meta_classification_type": "U",
        "meta_norad_cat_id": 66572,
        "meta_element_set_no": 999,
        "meta_rev_at_epoch": 325,
        "meta_bstar": -0.014838457,
        "meta_mean_motion_dot": -0.01846163,
        "meta_mean_motion_ddot": 0,
        "tle_line1": "1 66572U 25268R   25337.91670139 -.01846163  00000+0 -14838-1 0  9990",
        "tle_line2": "2 66572  42.9991 173.2674 0001670 266.3348  11.2013 15.73314622  3250"
      },
      "geometry": {
        "type": "Point",
        "coordinates": [
          -8.071586323653506,
          -1.5188430138175295
        ]
      }
    },
    {
      "type": "Feature",
      "properties": {
        "norad_id": 66573,
        "name": "STARLINK-35650",
        "group": "last-30-days",
        "lat": -2.8224684023860767,
        "lon": -6.675184876890249,
        "alt_km": 355.32290073577497,
        "timestamp": "2025-12-04T09:47:36.303185+00:00",
        "meta_object_name": "STARLINK-35650",
        "meta_object_id": "2025-268S",
        "meta_epoch": "2025-12-03T22:00:03.000096",
        "meta_mean_motion": 15.73308348,
        "meta_eccentricity": 0.00018734,
        "meta_inclination": 42.999,
        "meta_ra_of_asc_node": 173.2615,
        "meta_arg_of_pericenter": 269.0657,
        "meta_mean_anomaly": 10.3869,
        "meta_ephemeris_type": 0,
        "meta_classification_type": "U",
        "meta_norad_cat_id": 66573,
        "meta_element_set_no": 999,
        "meta_rev_at_epoch": 325,
        "meta_bstar": -0.014749009,
        "meta_mean_motion_dot": -0.0183622,
        "meta_mean_motion_ddot": 0,
        "tle_line1": "1 66573U 25268S   25337.91670139 -.01836220  00000+0 -14749-1 0  9995",
        "tle_line2": "2 66573  42.9990 173.2615 0001873 269.0657  10.3869 15.73308348  3250"
      },
      "geometry": {
        "type": "Point",
        "coordinates": [
          -6.675184876890249,
          -2.8224684023860767
        ]
      }
    },
    {
      "type": "Feature",
      "properties": {
        "norad_id": 66574,
        "name": "STARLINK-35812",
        "group": "last-30-days",
        "lat": -4.129876026367774,
        "lon": -5.269212742284168,
        "alt_km": 355.4486895544169,
        "timestamp": "2025-12-04T09:47:36.303195+00:00",
        "meta_object_name": "STARLINK-35812",
        "meta_object_id": "2025-268T",
        "meta_epoch": "2025-12-03T22:00:03.000096",
        "meta_mean_motion": 15.7331489,
        "meta_eccentricity": 0.00015127,
        "meta_inclination": 42.9991,
        "meta_ra_of_asc_node": 173.2561,
        "meta_arg_of_pericenter": 267.9771,
        "meta_mean_anomaly": 13.3965,
        "meta_ephemeris_type": 0,
        "meta_classification_type": "U",
        "meta_norad_cat_id": 66574,
        "meta_element_set_no": 999,
        "meta_rev_at_epoch": 325,
        "meta_bstar": -0.014872747,
        "meta_mean_motion_dot": -0.01849753,
        "meta_mean_motion_ddot": 0,
        "tle_line1": "1 66574U 25268T   25337.91670139 -.01849753  00000+0 -14873-1 0  9999",
        "tle_line2": "2 66574  42.9991 173.2561 0001512 267.9771  13.3965 15.73314890  3255"
      },
      "geometry": {
        "type": "Point",
        "coordinates": [
          -5.269212742284168,
          -4.129876026367774
        ]
      }
    }
  ]
}